{
  "type": "FeatureCollection",
  "features": [
    {
      "type": "Feature",
      "properties": {
        "norad_id": 24946,
        "name": "IRIDIUM 33",
        "group": "iridium-33-debris",
        "lat": 86.0619819481997,
        "lon": 176.2126327362671,
        "alt_km": 765.1281164911406,
        "timestamp": "2025-12-25T11:37:44.823827+00:00",
        "meta_object_name": "IRIDIUM 33",
        "meta_object_id": "1997-051C",
        "meta_epoch": "2025-12-25T04:30:35.603712",
        "meta_mean_motion": 14.35045763,
        "meta_eccentricity": 0.00085,
        "meta_inclination": 86.3857,
        "meta_ra_of_asc_node": 62.9959,
        "meta_arg_of_pericenter": 160.2017,
        "meta_mean_anomaly": 199.9511,
        "meta_ephemeris_type": 0,
        "meta_classification_type": "U",
        "meta_norad_cat_id": 24946,
        "meta_element_set_no": 999,
        "meta_rev_at_epoch": 48013,
        "meta_bstar": 0.00011431,
        "meta_mean_motion_dot": 3.45e-06,
        "meta_mean_motion_ddot": 0,
        "tle_line1": "1 24946U 97051C   25359.18791208  .00000345  00000+0  11431-3 0  9991",
        "tle_line2": "2 24946  86.3857  62.9959 0008500 160.2017 199.9511 14.35045763480133"
      },
      "geometry": {
        "type": "Point",
        "coordinates": [
          176.2126327362671,
          86.0619819481997
        ]
      }
    },
    {
      "type": "Feature",
      "properties": {
        "norad_id": 33773,
        "name": "IRIDIUM 33 DEB",
        "group": "iridium-33-debris",
        "lat": 65.22852852648472,
        "lon": 63.029831565447694,
        "alt_km": 734.6064760302888,
        "timestamp": "2025-12-25T11:37:44.823872+00:00",
        "meta_object_name": "IRIDIUM 33 DEB",
        "meta_object_id": "1997-051L",
        "meta_epoch": "2025-12-25T03:00:26.345088",
        "meta_mean_motion": 14.43282119,
        "meta_eccentricity": 0.0013274,
        "meta_inclination": 86.3998,
        "meta_ra_of_asc_node": 55.3405,
        "meta_arg_of_pericenter": 110.8698,
        "meta_mean_anomaly": 249.3926,
        "meta_ephemeris_type": 0,
        "meta_classification_type": "U",
        "meta_norad_cat_id": 33773,
        "meta_element_set_no": 999,
        "meta_rev_at_epoch": 88526,
        "meta_bstar": 0.00029113,
        "meta_mean_motion_dot": 1.001e-05,
        "meta_mean_motion_ddot": 0,
        "tle_line1": "1 33773U 97051L   25359.12530492  .00001001  00000+0  29113-3 0  9995",
        "tle_line2": "2 33773  86.3998  55.3405 0013274 110.8698 249.3926 14.43282119885269"
      },
      "geometry": {
        "type": "Point",
        "coordinates": [
          63.029831565447694,
          65.22852852648472
        ]
      }
    },
    {
      "type": "Feature",
      "properties": {
        "norad_id": 33775,
        "name": "IRIDIUM 33 DEB",
        "group": "iridium-33-debris",
        "lat": 66.76539638920737,
        "lon": 52.6331100235483,
        "alt_km": 740.0498541694769,
        "timestamp": "2025-12-25T11:37:44.823889+00:00",
        "meta_object_name": "IRIDIUM 33 DEB",
        "meta_object_id": "1997-051N",
        "meta_epoch": "2025-12-24T21:08:33.647136",
        "meta_mean_motion": 14.41493494,
        "meta_eccentricity": 0.0015301,
        "meta_inclination": 86.3624,
        "meta_ra_of_asc_node": 44.3695,
        "meta_arg_of_pericenter": 118.5758,
        "meta_mean_anomaly": 58.3115,
        "meta_ephemeris_type": 0,
        "meta_classification_type": "U",
        "meta_norad_cat_id": 33775,
        "meta_element_set_no": 999,
        "meta_rev_at_epoch": 88315,
        "meta_bstar": 0.00031635,
        "meta_mean_motion_dot": 1.048e-05,
        "meta_mean_motion_ddot": 0,
        "tle_line1": "1 33775U 97051N   25358.88094499  .00001048  00000+0  31635-3 0  9994",
        "tle_line2": "2 33775  86.3624  44.3695 0015301 118.5758  58.3115 14.41493494883153"
      },
      "geometry": {
        "type": "Point",
        "coordinates": [
          52.6331100235483,
          66.76539638920737
        ]
      }
    },
    {
      "type": "Feature",
      "properties": {
        "norad_id": 33776,
        "name": "IRIDIUM 33 DEB",
        "group": "iridium-33-debris",
        "lat": 31.199665844041323,
        "lon": -106.75946672929307,
        "alt_km": 751.404037007338,
        "timestamp": "2025-12-25T11:37:44.823903+00:00",
        "meta_object_name": "IRIDIUM 33 DEB",
        "meta_object_id": "1997-051P",
        "meta_epoch": "2025-12-25T00:03:18.980064",
        "meta_mean_motion": 14.38255596,
        "meta_eccentricity": 0.0015705,
        "meta_inclination": 86.4031,
        "meta_ra_of_asc_node": 75.6262,
        "meta_arg_of_pericenter": 151.5247,
        "meta_mean_anomaly": 21.7754,
        "meta_ephemeris_type": 0,
        "meta_classification_type": "U",
        "meta_norad_cat_id": 33776,
        "meta_element_set_no": 999,
        "meta_rev_at_epoch": 88258,
        "meta_bstar": 0.00026549,
        "meta_mean_motion_dot": 8.27e-06,
        "meta_mean_motion_ddot": 0,
        "tle_line1": "1 33776U 97051P   25359.00230301  .00000827  00000+0  26549-3 0  9996",
        "tle_line2": "2 33776  86.4031  75.6262 0015705 151.5247  21.7754 14.38255596882586"
      },
      "geometry": {
        "type": "Point",
        "coordinates": [
          -106.75946672929307,
          31.199665844041323
        ]
      }
    },
    {
      "type": "Feature",
      "properties": {
        "norad_id": 33777,
        "name": "IRIDIUM 33 DEB",
        "group": "iridium-33-debris",
        "lat": 13.869898697343094,
        "lon": 30.554352750297138,
        "alt_km": 712.6778055026352,
        "timestamp": "2025-12-25T11:37:44.823915+00:00",
        "meta_object_name": "IRIDIUM 33 DEB",
        "meta_object_id": "1997-051Q",
        "meta_epoch": "2025-12-25T03:18:59.715360",
        "meta_mean_motion": 14.55696956,
        "meta_eccentricity": 0.0006317,
        "meta_inclination": 86.3773,
        "meta_ra_of_asc_node": 29.8087,
        "meta_arg_of_pericenter": 197.114,
        "meta_mean_anomaly": 162.9856,
        "meta_ephemeris_type": 0,
        "meta_classification_type": "U",
        "meta_norad_cat_id": 33777,
        "meta_element_set_no": 999,
        "meta_rev_at_epoch": 88714,
        "meta_bstar": 0.00084427,
        "meta_mean_motion_dot": 3.71e-05,
        "meta_mean_motion_ddot": 0,
        "tle_line1": "1 33777U 97051Q   25359.13819115  .00003710  00000+0  84427-3 0  9990",
        "tle_line2": "2 33777  86.3773  29.8087 0006317 197.1140 162.9856 14.55696956887148"
      },
      "geometry": {
        "type": "Point",
        "coordinates": [
          30.554352750297138,
          13.869898697343094
        ]
      }
    },
    {
      "type": "Feature",
      "properties": {
        "norad_id": 33850,
        "name": "IRIDIUM 33 DEB",
        "group": "iridium-33-debris",
        "lat": 78.53026247739983,
        "lon": 43.08327320390963,
        "alt_km": 737.2545862483121,
        "timestamp": "2025-12-25T11:37:44.823928+00:00",
        "meta_object_name": "IRIDIUM 33 DEB",
        "meta_object_id": "1997-051T",
        "meta_epoch": "2025-12-25T03:13:46.982784",
        "meta_mean_motion": 14.42176919,
        "meta_eccentricity": 0.0013278,
        "meta_inclination": 86.3408,
        "meta_ra_of_asc_node": 24.8493,
        "meta_arg_of_pericenter": 124.2339,
        "meta_mean_anomaly": 299.1573,
        "meta_ephemeris_type": 0,
        "meta_classification_type": "U",
        "meta_norad_cat_id": 33850,
        "meta_element_set_no": 999,
        "meta_rev_at_epoch": 88331,
        "meta_bstar": 0.00041553,
        "meta_mean_motion_dot": 1.388e-05,
        "meta_mean_motion_ddot": 0,
        "tle_line1": "1 33850U 97051T   25359.13457156  .00001388  00000+0  41553-3 0  9997",
        "tle_line2": "2 33850  86.3408  24.8493 0013278 124.2339 299.1573 14.42176919883318"
      },
      "geometry": {
        "type": "Point",
        "coordinates": [
          43.08327320390963,
          78.53026247739983
        ]
      }
    },
    {
      "type": "Feature",
      "properties": {
        "norad_id": 33853,
        "name": "IRIDIUM 33 DEB",
        "group": "iridium-33-debris",
        "lat": -67.96335331866369,
        "lon": -25.732375526549905,
        "alt_km": 914.7743623116139,
        "timestamp": "2025-12-25T11:37:44.823941+00:00",
        "meta_object_name": "IRIDIUM 33 DEB",
        "meta_object_id": "1997-051W",
        "meta_epoch": "2025-12-24T22:19:16.041792",
        "meta_mean_motion": 13.99120379,
        "meta_eccentricity": 0.0207734,
        "meta_inclination": 86.0001,
        "meta_ra_of_asc_node": 344.4648,
        "meta_arg_of_pericenter": 198.227,
        "meta_mean_anomaly": 179.9108,
        "meta_ephemeris_type": 0,
        "meta_classification_type": "U",
        "meta_norad_cat_id": 33853,
        "meta_element_set_no": 999,
        "meta_rev_at_epoch": 85516,
        "meta_bstar": 0.0011909,
        "meta_mean_motion_dot": 2.092e-05,
        "meta_mean_motion_ddot": 0,
        "tle_line1": "1 33853U 97051W   25358.93004678  .00002092  00000+0  11909-2 0  9998",
        "tle_line2": "2 33853  86.0001 344.4648 0207734 198.2270 179.9108 13.99120379855168"
      },
      "geometry": {
        "type": "Point",
        "coordinates": [
          -25.732375526549905,
          -67.96335331866369
        ]
      }
    }
  ]
}